{
  "type": "FeatureCollection",
  "features": [
    {
      "type": "Feature",
      "properties": {
        "norad_id": 64903,
        "name": "CO3D 1",
        "group": "resource",
        "lat": -58.67442567776837,
        "lon": 82.7854958986134,
        "alt_km": 512.8377437563568,
        "timestamp": "2025-12-20T05:41:49.676339+00:00",
        "meta_object_name": "CO3D 1",
        "meta_object_id": "2025-156E",
        "meta_epoch": "2025-12-19T22:03:34.674048",
        "meta_mean_motion": 15.20192252,
        "meta_eccentricity": 9.469e-05,
        "meta_inclination": 97.4345,
        "meta_ra_of_asc_node": 70.0826,
        "meta_arg_of_pericenter": 73.2379,
        "meta_mean_anomaly": 286.896,
        "meta_ephemeris_type": 0,
        "meta_classification_type": "U",
        "meta_norad_cat_id": 64903,
        "meta_element_set_no": 999,
        "meta_rev_at_epoch": 2229,
        "meta_bstar": 0.00017722899,
        "meta_mean_motion_dot": 3.77e-05,
        "meta_mean_motion_ddot": 0,
        "tle_line1": "1 64903U 25156E   25353.91915132  .00003770  00000+0  17723-3 0  9999",
        "tle_line2": "2 64903  97.4345  70.0826 0000946  73.2379 286.8960 15.20192252 22292"
      },
      "geometry": {
        "type": "Point",
        "coordinates": [
          82.7854958986134,
          -58.67442567776837
        ]
      }
    },
    {
      "type": "Feature",
      "properties": {
        "norad_id": 66514,
        "name": "SENTINEL-6B",
        "group": "resource",
        "lat": 51.96993646419227,
        "lon": -67.79667006890367,
        "alt_km": 1334.799253417601,
        "timestamp": "2025-12-20T05:41:49.676349+00:00",
        "meta_object_name": "SENTINEL-6B",
        "meta_object_id": "2025-264A",
        "meta_epoch": "2025-12-12T06:01:21.428544",
        "meta_mean_motion": 12.81479578,
        "meta_eccentricity": 0.00078482,
        "meta_inclination": 66.0385,
        "meta_ra_of_asc_node": 163.4531,
        "meta_arg_of_pericenter": 270.1376,
        "meta_mean_anomaly": 89.874,
        "meta_ephemeris_type": 0,
        "meta_classification_type": "U",
        "meta_norad_cat_id": 66514,
        "meta_element_set_no": 999,
        "meta_rev_at_epoch": 322,
        "meta_bstar": 0.00018573353,
        "meta_mean_motion_dot": -1.8e-07,
        "meta_mean_motion_ddot": 0,
        "tle_line1": "1 66514U 25264A   25346.25094246 -.00000018  00000+0  18573-3 0  9999",
        "tle_line2": "2 66514  66.0385 163.4531 0007848 270.1376  89.8740 12.81479578  3223"
      },
      "geometry": {
        "type": "Point",
        "coordinates": [
          -67.79667006890367,
          51.96993646419227
        ]
      }
    }
  ]
}